{
  "type": "FeatureCollection",
  "source": {
    "data": "© OpenStreetMap contributors",
    "licence": "ODbL 1.0 — https://opendatacommons.org/licenses/odbl/1-0/",
    "note": "Boundaries drawn along real streets rather than as straight edges between corners, so the service area and its zones end at roads. Checked in as geometry; there is no generator behind it."
  },
  "features": [
    {
      "type": "Feature",
      "properties": {"kind":"service-area","name":"Las Vegas"},
      "geometry": {
        "type": "Polygon",
        "coordinates": [
          [
            [-115.30058,36.10012],
            [-115.29742,36.10012],
            [-115.29741,36.09995],
            [-115.29461,36.09979],
            [-115.2909,36.09572],
            [-115.2897,36.0933],
            [-115.28937,36.09132],
            [-115.28949,36.08831],
            [-115.29014,36.08526],
            [-115.27932,36.08515],
            [-115.27935,36.0778],
            [-115.27007,36.07768],
            [-115.27007,36.07029],
            [-115.26081,36.07013],
            [-115.2608,36.06708],
            [-115.26054,36.06708],
            [-115.26064,36.06118],
            [-115.25417,36.06114],
            [-115.25262,36.06136],
            [-115.25203,36.06015],
            [-115.25201,36.05572],
            [-115.24314,36.05572],
            [-115.24313,36.04882],
            [-115.24292,36.04867],
            [-115.2166,36.04953],
            [-115.21633,36.05669],
            [-115.2061,36.05707],
            [-115.1903,36.05725],
            [-115.17246,36.05685],
            [-115.17229,36.04245],
            [-115.16785,36.04234],
            [-115.16787,36.03529],
            [-115.15447,36.03507],
            [-115.15446,36.02782],
            [-115.15296,36.02777],
            [-115.14982,36.02867],
            [-115.14743,36.02812],
            [-115.11857,36.0277],
            [-115.11829,36.0349],
            [-115.11219,36.03499],
            [-115.10991,36.03479],
            [-115.10937,36.03582],
            [-115.10928,36.04227],
            [-115.10023,36.04245],
            [-115.10023,36.04968],
            [-115.08448,36.04926],
            [-115.0825,36.04901],
            [-115.08265,36.05312],
            [-115.08361,36.0551],
            [-115.08345,36.05515],
            [-115.08387,36.05629],
            [-115.06874,36.05633],
            [-115.06892,36.05735],
            [-115.06998,36.05905],
            [-115.07098,36.06381],
            [-115.07095,36.06492],
            [-115.07039,36.06628],
            [-115.06967,36.06708],
            [-115.06825,36.06804],
            [-115.06712,36.06685],
            [-115.06501,36.06535],
            [-115.06188,36.0641],
            [-115.05871,36.06377],
            [-115.05275,36.06375],
            [-115.05216,36.06665],
            [-115.05088,36.06929],
            [-115.05069,36.07164],
            [-115.05099,36.07264],
            [-115.05264,36.07547],
            [-115.05305,36.07828],
            [-115.04563,36.07833],
            [-115.04419,36.08129],
            [-115.04388,36.08386],
            [-115.035,36.08385],
            [-115.03383,36.08411],
            [-115.03274,36.08477],
            [-115.03988,36.09123],
            [-115.03771,36.09269],
            [-115.02977,36.09267],
            [-115.02984,36.09638],
            [-115.02959,36.09696],
            [-115.02897,36.09748],
            [-115.03144,36.09967],
            [-115.03271,36.10023],
            [-115.03963,36.10039],
            [-115.03963,36.10303],
            [-115.0402,36.10418],
            [-115.04108,36.10487],
            [-115.04188,36.10517],
            [-115.04899,36.10619],
            [-115.05015,36.10676],
            [-115.05076,36.10741],
            [-115.05113,36.10837],
            [-115.05154,36.11485],
            [-115.055,36.11489],
            [-115.0559,36.11508],
            [-115.05627,36.12968],
            [-115.02937,36.12983],
            [-115.02915,36.14889],
            [-115.02856,36.15044],
            [-115.02621,36.15375],
            [-115.02591,36.15473],
            [-115.02552,36.18869],
            [-115.02552,36.18869],
            [-115.02694,36.20253],
            [-115.03598,36.20251],
            [-115.04611,36.2039],
            [-115.05338,36.20394],
            [-115.05455,36.20362],
            [-115.0621,36.20368],
            [-115.06207,36.23594],
            [-115.03362,36.25267],
            [-115.03382,36.25306],
            [-115.03419,36.26201],
            [-115.04172,36.26235],
            [-115.04782,36.26228],
            [-115.04787,36.26962],
            [-115.05393,36.2695],
            [-115.05564,36.27011],
            [-115.05685,36.27198],
            [-115.05694,36.27689],
            [-115.06179,36.27686],
            [-115.06174,36.27497],
            [-115.06278,36.27235],
            [-115.06253,36.27114],
            [-115.06204,36.27043],
            [-115.06509,36.26939],
            [-115.07583,36.26931],
            [-115.08000717170222,36.265469790688215],
            [-115.08003,36.27661],
            [-115.0986,36.27663],
            [-115.09859,36.28028],
            [-115.1032,36.28017],
            [-115.10319,36.28192],
            [-115.10253,36.28292],
            [-115.10357,36.28346],
            [-115.10529,36.28379],
            [-115.12436,36.28373],
            [-115.12456,36.28729],
            [-115.13156,36.28726],
            [-115.13248,36.28672],
            [-115.13314,36.28584],
            [-115.13361,36.28562],
            [-115.13508,36.28556],
            [-115.13654,36.28575],
            [-115.13818,36.28713],
            [-115.13882,36.28738],
            [-115.1531,36.28765],
            [-115.15299,36.29684],
            [-115.15688,36.29696],
            [-115.15798,36.29727],
            [-115.1633,36.30098],
            [-115.1706,36.29452],
            [-115.17195,36.29402],
            [-115.17413,36.2937],
            [-115.17527,36.29376],
            [-115.17781,36.29459],
            [-115.17683,36.29615],
            [-115.17538,36.29708],
            [-115.17465,36.29807],
            [-115.17485,36.30083],
            [-115.17584,36.30249],
            [-115.17754,36.30347],
            [-115.17905,36.30373],
            [-115.18083,36.30372],
            [-115.18204,36.30343],
            [-115.18461,36.30224],
            [-115.1858,36.30093],
            [-115.18717,36.29777],
            [-115.18859,36.297],
            [-115.18736,36.29551],
            [-115.18392,36.29266],
            [-115.18516,36.29168],
            [-115.18623,36.29119],
            [-115.18759,36.29094],
            [-115.19826,36.29131],
            [-115.19822,36.28758],
            [-115.20503,36.28779],
            [-115.20654,36.28753],
            [-115.20649,36.28387],
            [-115.21098,36.28363],
            [-115.21095,36.27998],
            [-115.21541,36.27978],
            [-115.21543,36.27627],
            [-115.21588,36.27225],
            [-115.22506,36.27213],
            [-115.22552,36.26835],
            [-115.23377,36.26896],
            [-115.23381,36.2655],
            [-115.23857,36.266],
            [-115.24241,36.26589],
            [-115.24213,36.25176],
            [-115.24219,36.25126],
            [-115.2429,36.25078],
            [-115.24047,36.24785],
            [-115.26037,36.24786],
            [-115.26976,36.24812],
            [-115.2698,36.24444],
            [-115.27911,36.24468],
            [-115.27904,36.21023],
            [-115.28091,36.2103],
            [-115.28727,36.2115],
            [-115.29301,36.21179],
            [-115.2964,36.21155],
            [-115.29829,36.21066],
            [-115.29934,36.20884],
            [-115.30054,36.20089],
            [-115.30037,36.1952],
            [-115.30055,36.19383],
            [-115.29907,36.19181],
            [-115.29927,36.19035],
            [-115.29989,36.18964],
            [-115.30119,36.18906],
            [-115.30356,36.18922],
            [-115.30411,36.18902],
            [-115.31348,36.18074],
            [-115.31689,36.17889],
            [-115.31729,36.17845],
            [-115.3162,36.17607],
            [-115.31516,36.16811],
            [-115.3137,36.16852],
            [-115.31328384096555,36.16873725949593],
            [-115.31383,36.1684],
            [-115.31515,36.16801],
            [-115.31398,36.15903],
            [-115.30316,36.15891],
            [-115.30314,36.15809],
            [-115.30234,36.15599],
            [-115.30239,36.15456],
            [-115.30498,36.15429],
            [-115.30571,36.15405],
            [-115.30702,36.15313],
            [-115.30759,36.15221],
            [-115.30769,36.15095],
            [-115.30694,36.14863],
            [-115.30681,36.14463],
            [-115.30614,36.14214],
            [-115.30617,36.13996],
            [-115.30651,36.13882],
            [-115.30592,36.13711],
            [-115.3059,36.13627],
            [-115.30655,36.13347],
            [-115.3062,36.12984],
            [-115.30611,36.12246],
            [-115.29714,36.12234],
            [-115.29726,36.10753],
            [-115.30168,36.10749],
            [-115.30181,36.10013],
            [-115.30058,36.10012]
          ]
        ]
      }
    },
    {
      "type": "Feature",
      "properties": {"kind":"zone","zoneId":"strip","name":"The Strip","minimumAvailable":21},
      "geometry": {
        "type": "Polygon",
        "coordinates": [
          [
            [-115.19461,36.07175],
            [-115.18848,36.07162],
            [-115.17921,36.07082],
            [-115.16146,36.07124],
            [-115.1614,36.07031],
            [-115.16097,36.06984],
            [-115.15874,36.06944],
            [-115.1564,36.06781],
            [-115.14877,36.06792],
            [-115.14654,36.06702],
            [-115.14629,36.06666],
            [-115.14608,36.06306],
            [-115.14488,36.06237],
            [-115.14338,36.06239],
            [-115.14287,36.06268],
            [-115.14278,36.06562],
            [-115.14222,36.06618],
            [-115.14112,36.06641],
            [-115.14113,36.07167],
            [-115.11878,36.07165],
            [-115.11885,36.0789],
            [-115.1232,36.07901],
            [-115.12329,36.08295],
            [-115.12413,36.08448],
            [-115.12435,36.0864],
            [-115.12618,36.08659],
            [-115.1284,36.08804],
            [-115.12811,36.08822],
            [-115.12785,36.08906],
            [-115.1281,36.10385],
            [-115.12802,36.10526],
            [-115.1276,36.10595],
            [-115.12827,36.10754],
            [-115.12861,36.11456],
            [-115.12857,36.11514],
            [-115.1279,36.11642],
            [-115.12756,36.12033],
            [-115.13744,36.12025],
            [-115.13681,36.12985],
            [-115.13694,36.15157],
            [-115.15334,36.15118],
            [-115.15409,36.15124],
            [-115.1541,36.15141],
            [-115.15519,36.15122],
            [-115.15558,36.15154],
            [-115.15551,36.15224],
            [-115.16126,36.15248],
            [-115.16565,36.15141],
            [-115.19079,36.15162],
            [-115.19091,36.14433],
            [-115.19047,36.13381],
            [-115.19484,36.13372],
            [-115.19475,36.11562],
            [-115.19948,36.11534],
            [-115.19915,36.10096],
            [-115.1992,36.08639],
            [-115.19453,36.08633],
            [-115.19457,36.08268],
            [-115.18992,36.08267],
            [-115.19007,36.07537],
            [-115.19459,36.0754],
            [-115.19461,36.07175]
          ]
        ]
      }
    },
    {
      "type": "Feature",
      "properties": {"kind":"zone","zoneId":"downtown","name":"Downtown","minimumAvailable":4},
      "geometry": {
        "type": "Polygon",
        "coordinates": [
          [
            [-115.19079111223873,36.15167276954801],
            [-115.16565,36.15141],
            [-115.16126,36.15248],
            [-115.15408,36.15217],
            [-115.15409,36.15124],
            [-115.15334,36.15118],
            [-115.13694,36.15157],
            [-115.13695,36.14796],
            [-115.12329,36.14825],
            [-115.12341,36.15886],
            [-115.12497,36.15891],
            [-115.12503,36.15941],
            [-115.12514,36.174],
            [-115.1254,36.17845],
            [-115.12502,36.17902],
            [-115.12501,36.18113],
            [-115.13982,36.18115],
            [-115.14173,36.18143],
            [-115.14399,36.18106],
            [-115.14689,36.1809],
            [-115.15988,36.18091],
            [-115.16065,36.18102],
            [-115.16081,36.18132],
            [-115.1608,36.18371],
            [-115.16098,36.18091],
            [-115.18799,36.18121],
            [-115.18802,36.1774],
            [-115.19301,36.17739],
            [-115.1925,36.17739],
            [-115.19275,36.17364],
            [-115.19255,36.15857],
            [-115.19232,36.15763],
            [-115.19088,36.15589],
            [-115.19079111223873,36.15167276954801]
          ]
        ]
      }
    },
    {
      "type": "Feature",
      "properties": {"kind":"zone","zoneId":"east-las-vegas","name":"East Las Vegas","minimumAvailable":11},
      "geometry": {
        "type": "Polygon",
        "coordinates": [
          [
            [-115.11842,36.05694],
            [-115.11861,36.0715],
            [-115.10091,36.07165],
            [-115.10089,36.07533],
            [-115.08702,36.07476],
            [-115.08692,36.07845],
            [-115.08437,36.07833],
            [-115.08296,36.07764],
            [-115.08245,36.0767],
            [-115.08227,36.07455],
            [-115.07991,36.07471],
            [-115.07634,36.07629],
            [-115.07333,36.07634],
            [-115.07316,36.08558],
            [-115.07,36.08588],
            [-115.06697,36.08718],
            [-115.06517,36.08738],
            [-115.06296,36.08704],
            [-115.06006,36.08571],
            [-115.05528,36.08274],
            [-115.05365,36.08227],
            [-115.05192,36.08236],
            [-115.04937,36.08348],
            [-115.04776,36.0839],
            [-115.04388,36.08396],
            [-115.04414,36.08467],
            [-115.0456,36.08532],
            [-115.04598,36.08581],
            [-115.04622,36.09508],
            [-115.04708,36.09596],
            [-115.04604,36.09673],
            [-115.06452,36.1131],
            [-115.065,36.12228],
            [-115.05617,36.12237],
            [-115.05641,36.1371],
            [-115.04726,36.13722],
            [-115.04726,36.13722],
            [-115.03372,36.13719],
            [-115.03364,36.14456],
            [-115.04722,36.14466],
            [-115.04731,36.15019],
            [-115.05215,36.15025],
            [-115.05361,36.15142],
            [-115.05423,36.15364],
            [-115.05325,36.15651],
            [-115.05319,36.16687],
            [-115.06201,36.16661],
            [-115.06201,36.16661],
            [-115.09813,36.1662],
            [-115.11212,36.16656],
            [-115.1251,36.16647],
            [-115.12497,36.15891],
            [-115.12341,36.15886],
            [-115.12296,36.13271],
            [-115.12217,36.1312],
            [-115.12217,36.12986],
            [-115.11866,36.12976],
            [-115.11884,36.12227],
            [-115.11914,36.11844],
            [-115.12773,36.11838],
            [-115.1279,36.11642],
            [-115.12849,36.11522],
            [-115.12827,36.10754],
            [-115.1276,36.10595],
            [-115.12802,36.10526],
            [-115.1281,36.10385],
            [-115.12785,36.08906],
            [-115.1284,36.08804],
            [-115.12618,36.08659],
            [-115.12435,36.0864],
            [-115.12413,36.08448],
            [-115.12329,36.08295],
            [-115.1232,36.07901],
            [-115.11885,36.0789],
            [-115.11842,36.05694],
            [-115.11842,36.05694]
          ]
        ]
      }
    },
    {
      "type": "Feature",
      "properties": {"kind":"zone","zoneId":"north-las-vegas","name":"North Las Vegas","minimumAvailable":12},
      "geometry": {
        "type": "Polygon",
        "coordinates": [
          [
            [-115.20484,36.18823],
            [-115.18338,36.18858],
            [-115.1558,36.18849],
            [-115.15198,36.18834],
            [-115.15076,36.18795],
            [-115.14527,36.18807],
            [-115.14363,36.18833],
            [-115.13398,36.18851],
            [-115.11605,36.18854],
            [-115.09975,36.18816],
            [-115.09195,36.18829],
            [-115.08911,36.18842],
            [-115.08915,36.19198],
            [-115.0709,36.1922],
            [-115.07115,36.19963],
            [-115.06224,36.19993],
            [-115.06223,36.24039],
            [-115.07112,36.24029],
            [-115.07113,36.2405],
            [-115.08012,36.24056],
            [-115.11189,36.24013],
            [-115.1124,36.24698],
            [-115.11686,36.24699],
            [-115.11716,36.26225],
            [-115.11736,36.26242],
            [-115.12027,36.26155],
            [-115.13032,36.26134],
            [-115.13031,36.25781],
            [-115.13941,36.25784],
            [-115.13942,36.25421],
            [-115.15305,36.25435],
            [-115.1533,36.24898],
            [-115.15378,36.24797],
            [-115.15483,36.24696],
            [-115.17083,36.2467],
            [-115.18468,36.24688],
            [-115.18475,36.24309],
            [-115.18943,36.24309],
            [-115.18954,36.2395],
            [-115.1984,36.23917],
            [-115.19743,36.21733],
            [-115.2074,36.21721],
            [-115.2074,36.21459],
            [-115.2081,36.21315],
            [-115.20788,36.21264],
            [-115.19896,36.20286],
            [-115.1992,36.20285],
            [-115.19714,36.20058],
            [-115.19727,36.20015],
            [-115.20253,36.19715],
            [-115.20372,36.19591],
            [-115.20501,36.19548],
            [-115.20591,36.19543],
            [-115.20607,36.18825],
            [-115.20484,36.18823]
          ]
        ]
      }
    },
    {
      "type": "Feature",
      "properties": {"kind":"zone","zoneId":"summerlin","name":"Summerlin","minimumAvailable":6},
      "geometry": {
        "type": "Polygon",
        "coordinates": [
          [
            [-115.29705,36.12425],
            [-115.29694,36.12244],
            [-115.27907,36.12228],
            [-115.27898,36.12487],
            [-115.27855,36.12578],
            [-115.26999,36.12572],
            [-115.26996,36.12208],
            [-115.26076,36.12186],
            [-115.252,36.12192],
            [-115.25199,36.11826],
            [-115.24919,36.11822],
            [-115.2477,36.11734],
            [-115.247,36.11786],
            [-115.2457,36.11822],
            [-115.24209,36.11807],
            [-115.23844,36.11819],
            [-115.23844,36.12193],
            [-115.23394,36.12188],
            [-115.23388,36.14415],
            [-115.23482,36.15923],
            [-115.23455,36.15988],
            [-115.2336,36.1605],
            [-115.23323,36.16102],
            [-115.23303,36.16419],
            [-115.23312,36.18043],
            [-115.23328,36.1819],
            [-115.23434,36.1835],
            [-115.23455,36.18492],
            [-115.2345,36.1857],
            [-115.23327,36.18772],
            [-115.23318,36.18856],
            [-115.23299,36.20321],
            [-115.2341,36.21787],
            [-115.23398,36.2249],
            [-115.24232,36.22566],
            [-115.26049,36.22564],
            [-115.27905,36.22619],
            [-115.2789,36.21724],
            [-115.27916,36.20443],
            [-115.2798,36.20277],
            [-115.28531,36.19669],
            [-115.28712,36.19346],
            [-115.28763,36.19184],
            [-115.28722,36.16829],
            [-115.28807,36.16692],
            [-115.2897,36.16756],
            [-115.29265,36.16741],
            [-115.29265,36.16741],
            [-115.28981,36.16751],
            [-115.28816,36.16682],
            [-115.29056,36.16442],
            [-115.29127,36.16323],
            [-115.29153,36.16202],
            [-115.29143,36.15683],
            [-115.29191,36.15512],
            [-115.29652,36.14968],
            [-115.29736,36.14847],
            [-115.29778,36.14722],
            [-115.29705,36.12425]
          ]
        ]
      }
    }
  ]
}
